"2 48034  53.0536 190.0258 0001502  69.2754 290.8396 15.06393497 49736",
"STARLINK-2295",
"1 48036U 21024BM  22037.57358996 -.00000594  00000+0 -20953-4 0  9998",
"2 48036  53.0545 189.9913 0001407  74.6593 285.4552 15.06399163 49738",
"STARLINK-2048",
"1 48092U 21027A   22037.55190917 -.00000174  00000+0  71908-5 0  9998",
"2 48092  53.0565 315.0806 0001545  77.7908 282.3254 15.06393620 48569",
"STARLINK-2404",
"1 48093U 21027B   22037.38926477 -.00005388  00000+0 -34294-3 0  9996",
"2 48093  53.0555  20.8256 0001345  71.9384 288.1752 15.06414038 47632",
"STARLINK-2412",
"1 48094U 21027C   22037.49249887 -.00002960  00000+0 -17986-3 0  9994",
"2 48094  53.0558  30.3558 0001573  74.6986 285.4177 15.06403485 47510",
"STARLINK-2414",
"1 48095U 21027D   22037.43352507 -.00001955  00000+0 -11237-3 0  9999",
"2 48095  53.0557  30.6294 0001665  66.7745 293.3419 15.06393604 47515",
"STARLINK-2417",
"1 48096U 21027E   22037.47406843 -.00001673  00000+0 -93446-4 0  9997",
"2 48096  53.0541  30.4489 0001633  60.5092 299.6060 15.06394740 47507",
"STARLINK-2418",
"1 48097U 21027F   22037.32110178 -.00003031  00000+0 -18472-3 0  9990",
"2 48097  53.0566  11.1251 0001589  89.3133 270.8038 15.06392322 47761",
"STARLINK-2421",
"1 48098U 21027G   22037.43076152 -.00002946  00000+0 -17900-3 0  9995",
"2 48098  53.0554  20.6396 0001510  68.1284 291.9866 15.06397614 47638",
"STARLINK-2428",
"1 48099U 21027H   22037.48514071  .00009522  00000+0  65755-3 0  9994",
"2 48099  53.0558  30.3826 0001630  70.7771 289.3394 15.06385567 47509",
"STARLINK-2430",
"1 48100U 21027J   22037.44642518 -.00000036  00000+0  16506-4 0  9994",
"2 48100  53.0554  10.5642 0001598  67.3398 292.7760 15.06388909 47782",
"STARLINK-2436",
"1 48101U 21027K   22037.23077126  .00000721  00000+0  67314-4 0  9992",
"2 48101  53.0547  21.5312 0001396  75.1746 284.9397 15.06397576 47612",
"STARLINK-2437",
"1 48102U 21027L   22037.20683396 -.00001757  00000+0 -99085-4 0  9994",
"2 48102  53.0569  11.6281 0001604  73.7853 286.3312 15.06393449 47749",
"STARLINK-2438",
"1 48103U 21027M   22037.41324714 -.00001383  00000+0 -73967-4 0  9990",
"2 48103  53.0551  10.6959 0001499  70.1429 289.9721 15.06401564 47778",
"STARLINK-2439",
"1 48104U 21027N   22037.42570928 -.00003069  00000+0 -18731-3 0  9992",
"2 48104  53.0555  15.6638 0001505  69.7095 290.4056 15.06382362 47719",
"STARLINK-2440",
"1 48105U 21027P   22037.06768938  .00005603  00000+0  39479-3 0  9999",
"2 48105  53.0566 322.2535 0001620  61.0380 299.0771 15.06394256 48428",
"STARLINK-2442",
"1 48106U 21027Q   22037.31647167  .00006551  00000+0  45831-3 0  9990",
"2 48106  53.0556  11.1360 0001475  79.9707 280.1449 15.06394852 47768",
"STARLINK-2443",
"1 48107U 21027R   22037.39850422 -.00000453  00000+0 -11535-4 0  9991",
"2 48107  53.0566  10.7658 0001440  77.5075 282.6075 15.06394779 47770",
"STARLINK-2444",
"1 48108U 21027S   22037.43813295  .00000003  00000+0  19122-4 0  9993",
"2 48108  53.0551  20.6004 0001484  65.4154 294.6990 15.06395464 47638",
"STARLINK-2445",
"1 48109U 21027T   22037.38560947 -.00000414  00000+0 -89007-5 0  9999",
"2 48109  53.0569  30.8285 0001649  62.8573 297.2584 15.06387993 47491",
"STARLINK-2447",
"1 48110U 21027U   22037.22803617 -.00000367  00000+0 -57263-5 0  9994",
"2 48110  53.0568  21.5370 0001516  83.6243 276.4918 15.06394373 47616",
"STARLINK-2448",
"1 48111U 21027V   22037.42243513 -.00001374  00000+0 -73358-4 0  9991",
"2 48111  53.0554  20.6697 0001437  79.7016 280.4135 15.06388060 47645",
"STARLINK-2449",
"1 48112U 21027W   22037.46345257 -.00001354  00000+0 -72039-4 0  9997",
"2 48112  53.0544  35.4835 0001557  75.3588 284.7573 15.06397071 47434",
"STARLINK-2450",
"1 48113U 21027X   22037.28240124  .00000753  00000+0  69472-4 0  9992",
"2 48113  53.0583  31.3007 0001565  69.8713 290.2444 15.06387157 47467",
"STARLINK-2451",
"1 48114U 21027Y   22037.37590947  .00001613  00000+0  12718-3 0  9990",
"2 48114  53.0549  25.8881 0001568  69.1712 290.9444 15.06397869 47562",
"STARLINK-2452",
"1 48115U 21027Z   22037.47037238 -.00003671  00000+0 -22783-3 0  9992",
"2 48115  53.0561  20.4513 0001365  80.0729 280.0414 15.06374878 47646",
"STARLINK-2454",
"1 48116U 21027AA  22037.47775713 -.00001456  00000+0 -78886-4 0  9995",
"2 48116  53.0535  30.4157 0001608  61.2641 298.8509 15.06389215 47505",
"STARLINK-2455",
"1 48117U 21027AB  22037.38376195  .00000032  00000+0  21013-4 0  9994",
"2 48117  53.0561  10.8361 0001438  76.1173 283.9976 15.06396388 47771",
"STARLINK-2458",
"1 48118U 21027AC  22037.39481589 -.00000485  00000+0 -13641-4 0  9992",
"2 48118  53.0565  10.7820 0001458  65.3813 294.7328 15.06400287 47773",
"STARLINK-2459",
"1 48119U 21027AD  22037.32478946 -.00000134  00000+0  99003-5 0  9996",
"2 48119  53.0566  11.0936 0001680  77.0054 283.1122 15.06395560 47750",
"STARLINK-2460",
"1 48120U 21027AE  22037.46300716 -.00003021  00000+0 -18400-3 0  9991",
"2 48120  53.0565  30.4907 0001500  72.9377 287.1776 15.06394890 47515",
"STARLINK-2462",
"1 48121U 21027AF  22037.43446332 -.00002385  00000+0 -14132-3 0  9994",
"2 48121  53.0573  20.6184 0001572  77.8865 282.2300 15.06380131 47633",
"STARLINK-2463",
"1 48122U 21027AG  22037.36944349  .00000615  00000+0  60189-4 0  9994",
"2 48122  53.0575  15.9034 0001682  55.3740 304.7408 15.06408789 47709",
"STARLINK-2464",
"1 48123U 21027AH  22037.44273698 -.00000990  00000+0 -47558-4 0  9999",
"2 48123  53.0559  10.5677 0001439  79.4895 280.6256 15.06393223 47781",
"STARLINK-2465",
"1 48124U 21027AJ  22037.44181968 -.00000984  00000+0 -47175-4 0  9996",
"2 48124  53.0554  20.5911 0001550  65.6394 294.4757 15.06388854 47631",
"STARLINK-2466",
"1 48125U 21027AK  22037.29989987 -.00001958  00000+0 -11267-3 0  9991",
"2 48125  53.0572  31.2238 0001499  68.3060 291.8089 15.06382527 47488",
"STARLINK-2467",
"1 48126U 21027AL  22037.34322847 -.00003019  00000+0 -18392-3 0  9990",
"2 48126  53.0556  11.0106 0001493  76.6643 283.4512 15.06387976 47777",
"STARLINK-2468",
"1 48127U 21027AM  22037.26765307 -.00003712  00000+0 -23048-3 0  9998",
"2 48127  53.0564  31.3698 0001645  66.9809 293.1353 15.06389614 47472",
"STARLINK-2469",
"1 48128U 21027AN  22037.50537208  .00004556  00000+0  32457-3 0  9992",
"2 48128  53.0560 320.2911 0001363  98.5948 261.5195 15.06398078 48488",
"STARLINK-2471",
"1 48129U 21027AP  22037.45932981 -.00003956  00000+0 -24682-3 0  9990",
"2 48129  53.0573  30.5059 0001562  71.0462 289.0696 15.06399104 47509",
"STARLINK-2472",
"1 48130U 21027AQ  22037.38235816  .00009244  00000+0  63874-3 0  9997",
"2 48130  53.0543  35.8478 0001557  65.9357 294.1794 15.06396802 47429",
"STARLINK-2473",
"1 48131U 21027AR  22037.40219484 -.00000982  00000+0 -47039-4 0  9992",
"2 48131  53.0552  10.7592 0001542  73.0016 287.1142 15.06392230 47773",
"STARLINK-2474",
"1 48132U 21027AS  22037.38192354 -.00001135  00000+0 -57316-4 0  9996",
"2 48132  53.0547  30.8599 0001718  69.9132 290.2042 15.06397519 47483",
"STARLINK-2475",
"1 48133U 21027AT  22037.37823575 -.00001408  00000+0 -75636-4 0  9990",
"2 48133  53.0567  30.8757 0001630  67.3282 292.7879 15.06398085 47498",
"STARLINK-2476",
"1 48134U 21027AU  22037.29713912 -.00001339  00000+0 -70995-4 0  9991",
"2 48134  53.0560  31.2365 0001584  71.0152 289.1008 15.06405012 47479",
"STARLINK-2478",
"1 48135U 21027AV  22037.48188211 -.00000008  00000+0  18345-4 0  9993",
"2 48135  53.0567  35.4049 0001440  69.6253 290.4891 15.06389635 47431",
"STARLINK-2479",
"1 48136U 21027AW  22037.45564115  .00003258  00000+0  23755-3 0  9991",
"2 48136  53.0560  30.5132 0001709  69.7373 290.3800 15.06400080 47501",
"STARLINK-2480",
"1 48137U 21027AX  22037.34964384 -.00000285  00000+0 -24473-6 0  9992",
"2 48137  53.0565  10.9860 0001603  59.7153 300.3994 15.06395659 47764",
"STARLINK-2481",
"1 48138U 21027AY  22037.44090062  .00001662  00000+0  13048-3 0  9998",
"2 48138  53.0546  30.5960 0001601  76.1501 283.9665 15.06394946 47502",
"STARLINK-2482",
"1 48139U 21027AZ  22037.43167946 -.00000837  00000+0 -37279-4 0  9992",
"2 48139  53.0561  10.6189 0001464  73.2385 286.8764 15.06396766 47781",
"STARLINK-2483",
"1 48140U 21027BA  22037.26670584 -.00000550  00000+0 -18006-4 0  9991",
"2 48140  53.0560  31.3649 0001595  73.7160 286.4005 15.06403830 47475",
"STARLINK-2484",
"1 48141U 21027BB  22037.48881536 -.00002269  00000+0 -13353-3 0  9995",
"2 48141  53.0553  30.3782 0001614  72.5641 287.5524 15.06392819 47526",
"STARLINK-2485",
"1 48142U 21027BC  22037.22895443 -.00000357  00000+0 -50914-5 0  9992",
"2 48142  53.0560  11.5400 0001421  66.9318 293.1820 15.06395490 47752",
"STARLINK-2486",
"1 48143U 21027BD  22037.14553874 -.00000158  00000+0  83086-5 0  9997",
"2 48143  53.0576 326.9073 0001545  64.9336 295.1813 15.06384879 48365",
"STARLINK-2487",
"1 48144U 21027BE  22037.43536542 -.00001134  00000+0 -57219-4 0  9997",
"2 48144  53.0552  10.6112 0001688  72.7552 287.3622 15.06393869 47770",
"STARLINK-2488",
"1 48145U 21027BF  22037.43905028 -.00002466  00000+0 -14668-3 0  9996",
"2 48145  53.0562  10.5868 0001787  66.8968 293.2209 15.06396487 47781",
"STARLINK-2489",
"1 48146U 21027BG  22037.37085233  .00001244  00000+0  10241-3 0  9991",
"2 48146  53.0569  30.8999 0001579  79.8438 280.2729 15.06404051 47492",
"STARLINK-2490",
"1 48147U 21027BH  22037.50125783 -.00000685  00000+0 -27121-4 0  9998",
"2 48147  53.0587  35.3049 0001638  65.3914 294.7246 15.06387664 47443",
"STARLINK-2491",
"1 48148U 21027BJ  22037.47040401 -.00002968  00000+0 -18053-3 0  9997",
"2 48148  53.0562  30.4633 0001603  62.2014 297.9137 15.06381083 47499",
"STARLINK-2492",
"1 48149U 21027BK  22037.28424354 -.00000529  00000+0 -16635-4 0  9996",
"2 48149  53.0561  11.2794 0001634  72.0199 288.0967 15.06388342 47757",
"STARLINK-2493",
"1 48150U 21027BL  22037.35427929 -.00000889  00000+0 -40790-4 0  9995",
"2 48150  53.0568  10.9815 0001381  90.3298 269.7849 15.06388305 47774",
"STARLINK-2503",
"1 48151U 21027BM  22037.42430623  .00000079  00000+0  24171-4 0  9993",
